SL-16 R/B               
1 23405U 94077B   26181.97081356 -.00000050  00000+0 -12071-5 0  9990
2 23405  70.9832 114.1648 0003749 315.2314  44.8506 14.15578105632265
ARIANE 40+ R/B          
1 23561U 95021B   26181.97442850  .00000284  00000+0  10419-3 0  9992
2 23561  98.4408 251.8500 0007324 153.8333  19.0857 14.39840908635544
SL-16 R/B               
1 23705U 95058B   26181.48857281 -.00000202  00000+0 -78836-4 0  9996
2 23705  71.0229 303.4314 0014554 302.1108  57.8602 14.15511390583815
SL-16 R/B               
1 24298U 96051B   26181.48706631  .00000140  00000+0  10224-3 0  9995
2 24298  70.7654 296.5019 0016618 317.7414  42.2424 14.12450647537576
ORBVIEW 2 (SEASTAR)     
1 24883U 97037A   26181.95978682  .00000254  00000+0  10446-3 0  9991
2 24883  98.8699 349.3612 0003338  88.9331 271.2236 14.35560603524729
SL-16 R/B               
1 25400U 98043G   26181.83410490  .00000039  00000+0  35383-4 0  9999
2 25400  98.8371 136.1111 0010727  50.6799 309.5330 14.26070763455111
SL-16 R/B               
1 25407U 98045B   26181.72671102  .00000238  00000+0  14421-3 0  9995
2 25407  71.0126 303.8547 0008827 224.4904 135.5511 14.16206025443107
ISS (ZARYA)             
1 25544U 98067A   26181.86323116  .00005885  00000+0  11296-3 0  9995
2 25544  51.6310 232.3923 0004309 252.2804 107.7714 15.49494077573878
CZ-4B R/B               
1 25732U 99025C   26181.56095028  .00000047  00000+0  43443-4 0  9999
2 25732  98.6477 223.0626 0037469  21.8856 135.4833 14.18285627404168
OKEAN-O                 
1 25860U 99039A   26181.59460836  .00000576  00000+0  82099-4 0  9999
2 25860  97.9310 240.2383 0001223  70.1897 289.9446 14.80482731451093
SL-16 R/B               
1 25861U 99039B   26181.67145108  .00000512  00000+0  71503-4 0  9999
2 25861  97.9833 240.4959 0013458 248.7377 111.2399 14.81858131453597
DELTA 2 R/B             
1 25876U 99041E   26181.48232798  .00001199  00000+0  23076-3 0  9992
2 25876  51.7621 210.6838 0501057 321.3100  35.2912 14.12040959378968
HELIOS 1B               
1 25977U 99064A   26181.29126342  .00001404  00000+0  15920-3 0  9993
2 25977  98.1603  86.8098 0002416  72.6759 287.4721 14.88040231702008
TERRA                   
1 25994U 99068A   26181.92721653  .00000433  00000+0  97091-4 0  9993
2 25994  97.9449 230.9283 0002627 152.3443 309.8686 14.61113975411610
SL-16 R/B               
1 26070U 00006B   26181.48881548  .00000131  00000+0  90614-4 0  9993
2 26070  71.0013 220.6566 0016398   1.8628 358.2553 14.15840386364529
TITAN 4B R/B            
1 26474U 00047B   26181.96827707  .00002853  00000+0  17801-3 0  9995
2 26474  67.9891  81.7816 0045853 273.1946  86.3958 15.10271887410018
ENVISAT                 
1 27386U 02009A   26181.86926918  .00000080  00000+0  39661-4 0  9990
2 27386  98.3840 132.8829 0001381  85.7542 295.4186 14.39067858275456
IDEFIX & ARIANE 42P R/B 
1 27422U 02021B   26181.83331143  .00000216  00000+0  98458-4 0  9992
2 27422  98.5943 119.1687 0011021 209.8360 150.2196 14.31088196260208
AQUA                    
1 27424U 02022A   26181.94524120  .00000804  00000+0  16956-3 0  9991
2 27424  98.4284 151.5035 0000695  75.4541 342.4000 14.62178762285284
CZ-4B R/B               
1 27432U 02024C   26181.55855064  .00000047  00000+0  46936-4 0  9994
2 27432  98.8693 234.2915 0051077  63.0494 102.3867 14.14566409245193
MIDORI II (ADEOS-II)    
1 27597U 02056A   26181.43833611  .00000233  00000+0  10945-3 0  9999
2 27597  98.7885 140.8112 0001992  58.8087 301.3290 14.29356413226401
H-2A R/B                
1 27601U 02056E   26181.82094839  .00000194  00000+0  82572-4 0  9991
2 27601  98.3318 137.9989 0069943 183.5777 195.9335 14.33827760230321
CZ-4B R/B               
1 28059U 03049C   26181.98397010  .00000292  00000+0  78528-4 0  9991
2 28059  98.6900 181.3799 0046989 245.4136 114.2159 14.55108676203075
CZ-2C R/B               
1 28222U 04012C   26181.77439873  .00137800  00000+0  67577-3 0  9992
2 28222  97.7076 259.0453 0010884 235.1434 124.8811 15.81773219222044
SL-16 R/B               
1 28353U 04021B   26181.87943184  .00000261  00000+0  16064-3 0  9998
2 28353  71.0011 354.9523 0006697 237.7937 122.2537 14.14609521138849
CZ-4B R/B               
1 28415U 04035C   26181.59906149  .00007018  00000+0  23536-3 0  9990
2 28415  97.3357 214.5224 0028883 287.7282  72.0807 15.30808983197175
CZ-2C R/B               
1 28480U 04046B   26181.72411419  .00000097  00000+0  50986-4 0  9990
2 28480  98.1934  89.6584 0139260 180.0781 180.0403 14.27029546124625
ARIANE 5 R/B            
1 28499U 04049H   26181.93894712  .00000571  00000+0  69348-4 0  9996
2 28499  98.2730 354.7237 0083473 344.9285  14.9443 14.85465108162606
CZ-2D R/B               
1 28738U 05024B   26181.60179354  .00062610  00000+0  49777-3 0  9993
2 28738  97.3472 201.7131 0000745 357.6269   2.4990 15.71047423157440
ALOS (DAICHI)           
1 28931U 06002A   26181.43129114  .00001058  00000+0  18444-3 0  9991
2 28931  98.1330 136.9579 0000959  60.7063 299.4238 14.70076296 90046
